OBJECT_NAME,OBJECT_ID,EPOCH,MEAN_MOTION,ECCENTRICITY,INCLINATION,RA_OF_ASC_NODE,ARG_OF_PERICENTER,MEAN_ANOMALY,EPHEMERIS_TYPE,CLASSIFICATION_TYPE,NORAD_CAT_ID,ELEMENT_SET_NO,REV_AT_EPOCH,BSTAR,MEAN_MOTION_DOT,MEAN_MOTION_DDOT
ONEWEB-0410,2022-012A,2026-06-30T12:08:47.945472,13.17649604,.00025709,87.9144,3.2082,60.3703,299.7685,0,U,51622,999,21545,.29893827E-4,.24E-6,0
ONEWEB-0411,2022-012B,2026-06-30T14:31:11.093664,13.10370704,.00020014,87.8824,33.5945,101.3501,258.7851,0,U,51623,999,21104,-.58441529E-3,-.191E-5,0
ONEWEB-0415,2022-012C,2026-06-30T03:26:34.044576,13.10371815,.00020525,87.8819,33.6849,91.0948,269.0414,0,U,51624,999,21098,-.82720577E-3,-.276E-5,0
ONEWEB-0416,2022-012D,2026-06-30T01:53:42.443808,13.10373467,.00021689,87.8818,33.7153,88.9604,271.1771,0,U,51625,999,21101,-.16459366E-2,-.562E-5,0
ONEWEB-0422,2022-012E,2026-06-30T12:23:22.732512,13.17650177,.00013898,87.9142,3.2071,106.1712,253.9572,0,U,51626,999,21556,.18422743E-3,.84E-6,0
ONEWEB-0423,2022-012F,2026-06-30T10:24:17.426592,13.17651273,.00018336,87.9137,3.2283,86.7506,273.3835,0,U,51627,999,21544,.13287083E-3,.64E-6,0
ONEWEB-0425,2022-012G,2026-06-29T15:08:38.537376,13.10371957,.00020228,87.8826,33.7883,75.1587,284.9765,0,U,51628,999,21095,-.10322668E-2,-.348E-5,0
ONEWEB-0428,2022-012H,2026-06-30T12:38:47.145984,13.10371351,.0001811,87.8815,33.6165,85.6450,274.4885,0,U,51629,999,21103,-.89712945E-3,-.3E-5,0
ONEWEB-0431,2022-012J,2026-06-30T11:54:34.185600,13.10375040,.00020374,87.8822,33.6150,102.5080,257.6275,0,U,51630,999,21108,.16904149E-2,.603E-5,0
ONEWEB-0434,2022-012K,2026-06-30T02:13:25.646016,13.10370859,.00019914,87.8827,33.7215,66.1065,294.0271,0,U,51631,999,21101,-.85766491E-3,-.287E-5,0
ONEWEB-0435,2022-012L,2026-06-30T13:22:42.358080,13.10374559,.00016301,87.8822,33.6137,93.7163,266.4151,0,U,51632,999,21106,-.344839E-3,-.108E-5,0
ONEWEB-0436,2022-012M,2026-06-30T12:01:29.919072,13.17650257,.00017393,87.9141,3.1972,96.3016,263.8313,0,U,51633,999,21543,.12103172E-3,.6E-6,0
ONEWEB-0438,2022-012N,2026-06-30T02:01:01.653024,13.10375359,.00019526,87.8821,33.7119,79.7458,280.3889,0,U,51634,999,21103,-.16004664E-2,-.546E-5,0
ONEWEB-0439,2022-012P,2026-06-30T02:05:55.019040,13.10375030,.00017878,87.8820,33.6987,82.1230,278.0100,0,U,51635,999,21101,-.13619546E-2,-.463E-5,0
ONEWEB-0442,2022-012Q,2026-06-30T11:50:35.851200,13.17649785,.0002133,87.9132,3.2304,75.6091,284.5277,0,U,51636,999,21542,.87643018E-4,.47E-6,0
ONEWEB-0443,2022-012R,2026-06-30T12:18:30.000672,13.17649196,.00015524,87.9133,3.2279,82.4627,277.6681,0,U,51637,999,21547,.3815729E-4,.28E-6,0
ONEWEB-0444,2022-012S,2026-06-30T12:50:59.178624,13.10373042,.0001657,87.8817,33.6080,82.8707,277.2609,0,U,51638,999,21108,-.16749729E-2,-.572E-5,0
ONEWEB-0445,2022-012T,2026-06-30T13:20:15.724320,13.10374325,.00020835,87.8833,33.5925,88.8420,271.2946,0,U,51639,999,21109,-.30019908E-3,-.92E-6,0
ONEWEB-0446,2022-012U,2026-06-30T12:48:30.304512,13.10380384,.00021158,87.8817,33.6252,86.6371,273.4998,0,U,51640,999,21107,-.15788597E-2,-.539E-5,0
ONEWEB-0448,2022-012V,2026-06-30T01:56:09.070656,13.10368302,.00018775,87.8818,33.7126,85.2098,274.9243,0,U,51641,999,21098,.91205372E-3,.331E-5,0
ONEWEB-0449,2022-012W,2026-06-30T02:03:27.327744,13.10380668,.00022075,87.8824,33.6969,72.0121,288.1247,0,U,51642,999,21099,-.15584848E-2,-.531E-5,0
ONEWEB-0451,2022-012X,2026-06-30T11:56:39.190848,13.17650337,.00018691,87.9143,3.1958,83.3182,276.8162,0,U,51643,999,21541,.1469877E-5,.13E-6,0
ONEWEB-0452,2022-012Y,2026-06-30T11:54:12.354912,13.17649896,.0001657,87.9134,3.2317,81.0653,279.0667,0,U,51644,999,21542,.11642026E-3,.58E-6,0
ONEWEB-0456,2022-012AA,2026-06-30T13:15:21.601440,13.10373910,.00016894,87.8835,33.5917,88.2224,271.9097,0,U,51646,999,21109,-.10964889E-2,-.37E-5,0
ONEWEB-0457,2022-012AB,2026-06-30T03:33:41.753088,13.10373034,.00021995,87.8817,33.6894,83.8632,276.2746,0,U,51647,999,21104,-.12615788E-2,-.428E-5,0
ONEWEB-0458,2022-012AC,2026-06-30T13:14:10.400928,13.10375979,.00016923,87.8828,33.5970,80.4937,279.6381,0,U,51648,999,21105,-.98155118E-3,-.33E-5,0
ONEWEB-0461,2022-012AD,2026-06-30T12:25:48.497088,13.17649578,.00019904,87.9143,3.2055,89.4170,270.7189,0,U,51649,999,21564,.12934712E-3,.63E-6,0
ONEWEB-0463,2022-012AE,2026-06-30T11:59:05.089344,13.17649777,.0002,87.9132,3.2306,90.3178,269.8183,0,U,51650,999,21542,.99386045E-4,.51E-6,0
ONEWEB-0464,2022-012AF,2026-06-30T02:10:46.708032,13.10350741,.00011064,87.8812,33.7078,106.4676,253.6573,0,U,51651,999,21101,-.24344869E-1,-.8475E-4,0
ONEWEB-0468,2022-012AG,2026-06-30T13:17:48.338880,13.10374241,.00015649,87.8821,33.6112,86.9712,273.1595,0,U,51652,999,21105,-.84831942E-3,-.283E-5,0
