ONEWEB-0410             
1 51622U 22012A   26181.50611048  .00000024  00000+0  29894-4 0  9997
2 51622  87.9144   3.2082 0002570  60.3703 299.7685 13.17649604215453
ONEWEB-0411             
1 51623U 22012B   26181.60498951 -.00000191  00000+0 -58442-3 0  9992
2 51623  87.8824  33.5945 0002001 101.3501 258.7851 13.10370704211049
ONEWEB-0415             
1 51624U 22012C   26181.14344959 -.00000276  00000+0 -82721-3 0  9991
2 51624  87.8819  33.6849 0002052  91.0948 269.0414 13.10371815210980
ONEWEB-0416             
1 51625U 22012D   26181.07896347 -.00000562  00000+0 -16459-2 0  9999
2 51625  87.8818  33.7153 0002168  88.9604 271.1771 13.10373467211011
ONEWEB-0422             
1 51626U 22012E   26181.51623533  .00000084  00000+0  18423-3 0  9995
2 51626  87.9142   3.2071 0001389 106.1712 253.9572 13.17650177215565
ONEWEB-0423             
1 51627U 22012F   26181.43353503  .00000064  00000+0  13287-3 0  9995
2 51627  87.9137   3.2283 0001833  86.7506 273.3835 13.17651273215446
ONEWEB-0425             
1 51628U 22012G   26180.63100159 -.00000348  00000+0 -10323-2 0  9998
2 51628  87.8826  33.7883 0002022  75.1587 284.9765 13.10371957210959
ONEWEB-0428             
1 51629U 22012H   26181.52693456 -.00000300  00000+0 -89713-3 0  9993
2 51629  87.8815  33.6165 0001811  85.6450 274.4885 13.10371351211035
ONEWEB-0431             
1 51630U 22012J   26181.49622900  .00000603  00000+0  16904-2 0  9992
2 51630  87.8822  33.6150 0002037 102.5080 257.6275 13.10375040211088
ONEWEB-0434             
1 51631U 22012K   26181.09265794 -.00000287  00000+0 -85766-3 0  9996
2 51631  87.8827  33.7215 0001991  66.1065 294.0271 13.10370859211010
ONEWEB-0435             
1 51632U 22012L   26181.55743470 -.00000108  00000+0 -34484-3 0  9993
2 51632  87.8822  33.6137 0001630  93.7163 266.4151 13.10374559211069
ONEWEB-0436             
1 51633U 22012M   26181.50104073  .00000060  00000+0  12103-3 0  9998
2 51633  87.9141   3.1972 0001739  96.3016 263.8313 13.17650257215435
ONEWEB-0438             
1 51634U 22012N   26181.08404691 -.00000546  00000+0 -16005-2 0  9996
2 51634  87.8821  33.7119 0001952  79.7458 280.3889 13.10375359211038
ONEWEB-0439             
1 51635U 22012P   26181.08744235 -.00000463  00000+0 -13620-2 0  9996
2 51635  87.8820  33.6987 0001787  82.1230 278.0100 13.10375030211016
ONEWEB-0442             
1 51636U 22012Q   26181.49347050  .00000047  00000+0  87643-4 0  9990
2 51636  87.9132   3.2304 0002133  75.6091 284.5277 13.17649785215422
ONEWEB-0443             
1 51637U 22012R   26181.51284723  .00000028  00000+0  38157-4 0  9996
2 51637  87.9133   3.2279 0001552  82.4627 277.6681 13.17649196215473
ONEWEB-0444             
1 51638U 22012S   26181.53540716 -.00000572  00000+0 -16750-2 0  9995
2 51638  87.8817  33.6080 0001657  82.8707 277.2609 13.10373042211084
ONEWEB-0445             
1 51639U 22012T   26181.55573755 -.00000092  00000+0 -30020-3 0  9991
2 51639  87.8833  33.5925 0002083  88.8420 271.2946 13.10374325211096
ONEWEB-0446             
1 51640U 22012U   26181.53368408 -.00000539  00000+0 -15789-2 0  9998
2 51640  87.8817  33.6252 0002115  86.6371 273.4998 13.10380384211072
ONEWEB-0448             
1 51641U 22012V   26181.08066054  .00000331  00000+0  91205-3 0  9997
2 51641  87.8818  33.7126 0001877  85.2098 274.9243 13.10368302210984
ONEWEB-0449             
1 51642U 22012W   26181.08573296 -.00000531  00000+0 -15585-2 0  9999
2 51642  87.8824  33.6969 0002207  72.0121 288.1247 13.10380668210996
ONEWEB-0451             
1 51643U 22012X   26181.49767582  .00000013  00000+0  14699-5 0  9999
2 51643  87.9143   3.1958 0001869  83.3182 276.8162 13.17650337215419
ONEWEB-0452             
1 51644U 22012Y   26181.49597633  .00000058  00000+0  11642-3 0  9990
2 51644  87.9134   3.2317 0001657  81.0653 279.0667 13.17649896215427
ONEWEB-0456             
1 51646U 22012AA  26181.55233335 -.00000370  00000+0 -10965-2 0  9990
2 51646  87.8835  33.5917 0001689  88.2224 271.9097 13.10373910211097
ONEWEB-0457             
1 51647U 22012AB  26181.14839992 -.00000428  00000+0 -12616-2 0  9996
2 51647  87.8817  33.6894 0002199  83.8632 276.2746 13.10373034211045
ONEWEB-0458             
1 51648U 22012AC  26181.55150927 -.00000330  00000+0 -98155-3 0  9991
2 51648  87.8828  33.5970 0001692  80.4937 279.6381 13.10375979211053
ONEWEB-0461             
1 51649U 22012AD  26181.51792242  .00000063  00000+0  12935-3 0  9993
2 51649  87.9143   3.2055 0001990  89.4170 270.7189 13.17649578215645
ONEWEB-0463             
1 51650U 22012AE  26181.49936446  .00000051  00000+0  99386-4 0  9991
2 51650  87.9132   3.2306 0002000  90.3178 269.8183 13.17649777215426
ONEWEB-0464             
1 51651U 22012AF  26181.09081838 -.00008475  00000+0 -24345-1 0  9994
2 51651  87.8812  33.7078 0001106 106.4676 253.6573 13.10350741211011
ONEWEB-0468             
1 51652U 22012AG  26181.55403170 -.00000283  00000+0 -84832-3 0  9991
2 51652  87.8821  33.6112 0001564  86.9712 273.1595 13.10374241211057
